QIANFAN-25              
1 61558U 24185G   25259.24732970  .00000422  00000+0  25021-3 0  9992
2 61558  88.9736  88.0980 0007756 202.6642 157.4199 14.05788453 57214
QIANFAN-26              
1 61559U 24185H   25259.23533808  .00000256  00000+0  24332-3 0  9990
2 61559  88.9744  89.2027 0003744 281.4148  78.6598 13.77739707 56625
QIANFAN-27              
1 61560U 24185J   25259.25159187  .00000486  00000+0  19328-3 0  9992
2 61560  88.9740  87.2082 0006914 202.0050 158.0849 14.27163458 57684
QIANFAN-28              
1 61561U 24185K   25259.27337986  .00000759  00000+0  30186-3 0  9998
2 61561  88.9755  87.2023 0006028 200.7569 159.3381 14.27753742 57699
QIANFAN-29              
1 61562U 24185L   25259.26954253  .00000180  00000+0  26080-3 0  9996
2 61562  88.9722  90.3568 0008710 312.1805  47.8606 13.50965801 55981
QIANFAN-30              
1 61563U 24185M   25259.25232296  .00000173  00000+0  25355-3 0  9998
2 61563  88.9741  89.8503 0005869 295.9349  64.1197 13.49943597 56263
QIANFAN-31              
1 61564U 24185N   25259.21832305  .00000172  00000+0  22171-3 0  9994
2 61564  88.9726  89.7945 0005418 293.3482  66.7103 13.57915887 56283
QIANFAN-32              
1 61565U 24185P   25259.26926820  .00000167  00000+0  24192-3 0  9995
2 61565  88.9784  89.9564 0008210 324.7016  35.3591 13.50695890 56232
